start=new Date('2022-01-10T00:00:00.000Z').valueOf();
sats=[{"CLASSIFICATION_TYPE":"U","REF_FRAME":"TEME","SEMIMAJOR_AXIS":"6884.679","COUNTRY_CODE":"US","TLE_LINE2":"2 44238  52.9968 124.6790 0001632 114.8959 245.2205 15.19767703144016","CENTER_NAME":"EARTH","RCS_SIZE":"LARGE","PERIOD":"94.751","OBJECT_ID":"2019-029D","DECAY_DATE":null,"MEAN_MOTION_DOT":"0.00008115","APOAPSIS":"507.668","OBJECT_TYPE":"PAYLOAD","MEAN_ANOMALY":"245.2205","EPOCH":"2022-01-09T19:08:59.379072","ARG_OF_PERICENTER":"114.8959","OBJECT_NAME":"STARLINK-24","MEAN_MOTION_DDOT":"0.0000000000000","RA_OF_ASC_NODE":"124.6790","FILE":"3268323","TIME_SYSTEM":"UTC","ELEMENT_SET_NO":"999","NORAD_CAT_ID":"44238","BSTAR":"0.00038903000000","REV_AT_EPOCH":"14401","GP_ID":"193555802","LAUNCH_DATE":"2019-05-24","INCLINATION":"52.9968","SITE":"AFETR","MEAN_ELEMENT_THEORY":"SGP4","ECCENTRICITY":"0.00016320","MEAN_MOTION":"15.19767703","EPHEMERIS_TYPE":"0","PERIAPSIS":"505.420","TLE_LINE1":"1 44238U 19029D   22009.79790948  .00008115  00000-0  38903-3 0  9999"},{"RA_OF_ASC_NODE":"91.6188","MEAN_MOTION_DDOT":"0.0000000000000","OBJECT_NAME":"STARLINK-61","FILE":"3268323","ELEMENT_SET_NO":"999","TIME_SYSTEM":"UTC","BSTAR":"0.00088013000000","NORAD_CAT_ID":"44249","REV_AT_EPOCH":"14515","LAUNCH_DATE":"2019-05-24","GP_ID":"193556052","ECCENTRICITY":"0.00061960","MEAN_ELEMENT_THEORY":"SGP4","INCLINATION":"52.9801","SITE":"AFETR","PERIAPSIS":"481.816","TLE_LINE1":"1 44249U 19029Q   22009.62025315  .00023067  00000-0  88013-3 0  9992","EPHEMERIS_TYPE":"0","MEAN_MOTION":"15.26572609","CLASSIFICATION_TYPE":"U","SEMIMAJOR_AXIS":"6864.204","REF_FRAME":"TEME","COUNTRY_CODE":"US","TLE_LINE2":"2 44249  52.9801  91.6188 0006196  11.3433 348.7702 15.26572609145150","OBJECT_ID":"2019-029Q","CENTER_NAME":"EARTH","RCS_SIZE":"LARGE","PERIOD":"94.329","DECAY_DATE":null,"MEAN_MOTION_DOT":"0.00023067","MEAN_ANOMALY":"348.7702","OBJECT_TYPE":"PAYLOAD","APOAPSIS":"490.322","ARG_OF_PERICENTER":"11.3433","EPOCH":"2022-01-09T14:53:09.872160"},{"FILE":"3268115","ELEMENT_SET_NO":"999","TIME_SYSTEM":"UTC","OBJECT_NAME":"STARLINK-71","RA_OF_ASC_NODE":"124.2209","MEAN_MOTION_DDOT":"0.0000000000000","REV_AT_EPOCH":"14566","NORAD_CAT_ID":"44252","BSTAR":"0.00065771000000","SITE":"AFETR","INCLINATION":"53.0008","MEAN_ELEMENT_THEORY":"SGP4","ECCENTRICITY":"0.00020720","GP_ID":"193531936","LAUNCH_DATE":"2019-05-24","MEAN_MOTION":"15.22265075","EPHEMERIS_TYPE":"0","TLE_LINE1":"1 44252U 19029T   22009.61019914  .00015031  00000-0  65771-3 0  9991","PERIAPSIS":"497.587","REF_FRAME":"TEME","SEMIMAJOR_AXIS":"6877.147","CLASSIFICATION_TYPE":"U","TLE_LINE2":"2 44252  53.0008 124.2209 0002072 167.0934 193.0115 15.22265075145663","COUNTRY_CODE":"US","DECAY_DATE":null,"MEAN_MOTION_DOT":"0.00015031","RCS_SIZE":"LARGE","PERIOD":"94.596","CENTER_NAME":"EARTH","OBJECT_ID":"2019-029T","EPOCH":"2022-01-09T14:38:41.205696","ARG_OF_PERICENTER":"167.0934","APOAPSIS":"500.437","OBJECT_TYPE":"PAYLOAD","MEAN_ANOMALY":"193.0115"},{"OBJECT_NAME":"STARLINK-43","MEAN_MOTION_DDOT":"0.0000000000000","RA_OF_ASC_NODE":"321.8266","TIME_SYSTEM":"UTC","FILE":"3268323","ELEMENT_SET_NO":"999","BSTAR":"0.00132350000000","NORAD_CAT_ID":"44257","REV_AT_EPOCH":"14711","GP_ID":"193556537","LAUNCH_DATE":"2019-05-24","MEAN_ELEMENT_THEORY":"SGP4","SITE":"AFETR","INCLINATION":"52.9899","ECCENTRICITY":"0.00085680","EPHEMERIS_TYPE":"0","MEAN_MOTION":"15.80536259","PERIAPSIS":"323.179","TLE_LINE1":"1 44257U 19029Y   22009.81412266  .00265110  00000-0  13235-2 0  9997","CLASSIFICATION_TYPE":"U","SEMIMAJOR_AXIS":"6707.060","REF_FRAME":"TEME","COUNTRY_CODE":"US","TLE_LINE2":"2 44257  52.9899 321.8266 0008568 119.1647 241.0232 15.80536259147112","RCS_SIZE":"LARGE","PERIOD":"91.108","CENTER_NAME":"EARTH","OBJECT_ID":"2019-029Y","DECAY_DATE":null,"MEAN_MOTION_DOT":"0.00265110","OBJECT_TYPE":"PAYLOAD","APOAPSIS":"334.672","MEAN_ANOMALY":"241.0232","EPOCH":"2022-01-09T19:32:20.197824","ARG_OF_PERICENTER":"119.1647"},{"DECAY_DATE":null,"MEAN_MOTION_DOT":"0.00033499","OBJECT_ID":"2019-029AZ","CENTER_NAME":"EARTH","RCS_SIZE":"LARGE","PERIOD":"93.429","ARG_OF_PERICENTER":"152.2124","EPOCH":"2022-01-09T17:58:16.833216","MEAN_ANOMALY":"207.8953","APOAPSIS":"443.265","OBJECT_TYPE":"PAYLOAD","REF_FRAME":"TEME","SEMIMAJOR_AXIS":"6820.470","CLASSIFICATION_TYPE":"U","TLE_LINE2":"2 44282  53.0176  29.2522 0001364 152.2124 207.8953 15.41279205145524","COUNTRY_CODE":"US","ECCENTRICITY":"0.00013640","INCLINATION":"53.0176","SITE":"AFETR","MEAN_ELEMENT_THEORY":"SGP4","LAUNCH_DATE":"2019-05-24","GP_ID":"193555303","TLE_LINE1":"1 44282U 19029AZ  22009.74880594  .00033499  00000-0  79883-3 0  9995","PERIAPSIS":"441.405","MEAN_MOTION":"15.41279205","EPHEMERIS_TYPE":"0","FILE":"3268323","ELEMENT_SET_NO":"999","TIME_SYSTEM":"UTC","MEAN_MOTION_DDOT":"0.0000000000000","RA_OF_ASC_NODE":"29.2522","OBJECT_NAME":"STARLINK-80","REV_AT_EPOCH":"14552","NORAD_CAT_ID":"44282","BSTAR":"0.00079883000000"},{"RCS_SIZE":"LARGE","CENTER_NAME":"EARTH","PERIOD":"95.592","OBJECT_ID":"2019-074A","DECAY_DATE":null,"MEAN_MOTION_DOT":"0.00001302","APOAPSIS":"548.738","OBJECT_TYPE":"PAYLOAD","MEAN_ANOMALY":"268.0646","EPOCH":"2022-01-09T20:25:41.273760","ARG_OF_PERICENTER":"92.0600","CLASSIFICATION_TYPE":"U","REF_FRAME":"TEME","SEMIMAJOR_AXIS":"6925.319","COUNTRY_CODE":"US","TLE_LINE2":"2 44713  53.0499 169.4457 0002244  92.0600 268.0646 15.06409541119677","GP_ID":"193555842","LAUNCH_DATE":"2019-11-11","INCLINATION":"53.0499","SITE":"AFETR","MEAN_ELEMENT_THEORY":"SGP4","ECCENTRICITY":"0.00022440","MEAN_MOTION":"15.06409541","EPHEMERIS_TYPE":"0","TLE_LINE1":"1 44713U 19074A   22009.85117215  .00001302  00000-0  10627-3 0  9998","PERIAPSIS":"545.630","OBJECT_NAME":"STARLINK-1007","RA_OF_ASC_NODE":"169.4457","MEAN_MOTION_DDOT":"0.0000000000000","TIME_SYSTEM":"UTC","FILE":"3268323","ELEMENT_SET_NO":"999","NORAD_CAT_ID":"44713","BSTAR":"0.00010627000000","REV_AT_EPOCH":"11967"},{"ARG_OF_PERICENTER":"88.9222","EPOCH":"2022-01-09T18:19:40.374336","MEAN_ANOMALY":"271.2006","APOAPSIS":"548.634","OBJECT_TYPE":"PAYLOAD","DECAY_DATE":null,"MEAN_MOTION_DOT":"0.00000766","OBJECT_ID":"2019-074B","PERIOD":"95.592","RCS_SIZE":"LARGE","CENTER_NAME":"EARTH","TLE_LINE2":"2 44714  53.0544 169.8383 0002086  88.9222 271.2006 15.06407908119669","COUNTRY_CODE":"US","REF_FRAME":"TEME","SEMIMAJOR_AXIS":"6925.324","CLASSIFICATION_TYPE":"U","PERIAPSIS":"545.745","TLE_LINE1":"1 44714U 19074B   22009.76366174  .00000766  00000-0  70326-4 0  9995","MEAN_MOTION":"15.06407908","EPHEMERIS_TYPE":"0","ECCENTRICITY":"0.00020860","INCLINATION":"53.0544","SITE":"AFETR","MEAN_ELEMENT_THEORY":"SGP4","LAUNCH_DATE":"2019-11-11","GP_ID":"193556092","REV_AT_EPOCH":"11966","NORAD_CAT_ID":"44714","BSTAR":"0.00007032600000","TIME_SYSTEM":"UTC","FILE":"3268323","ELEMENT_SET_NO":"999","MEAN_MOTION_DDOT":"0.0000000000000","RA_OF_ASC_NODE":"169.8383","OBJECT_NAME":"STARLINK-1008"},{"COUNTRY_CODE":"US","TLE_LINE2":"2 44715  53.0539 169.5843 0002012  98.3764 261.7454 15.06389431119668","CLASSIFICATION_TYPE":"U","SEMIMAJOR_AXIS":"6925.381","REF_FRAME":"TEME","MEAN_ANOMALY":"261.7454","OBJECT_TYPE":"PAYLOAD","APOAPSIS":"548.639","ARG_OF_PERICENTER":"98.3764","EPOCH":"2022-01-09T19:39:17.532288","OBJECT_ID":"2019-074C","PERIOD":"95.593","RCS_SIZE":"LARGE","CENTER_NAME":"EARTH","MEAN_MOTION_DOT":"0.00000791","DECAY_DATE":null,"BSTAR":"0.00007201800000","NORAD_CAT_ID":"44715","REV_AT_EPOCH":"11966","MEAN_MOTION_DDOT":"0.0000000000000","RA_OF_ASC_NODE":"169.5843","OBJECT_NAME":"STARLINK-1009","ELEMENT_SET_NO":"999","FILE":"3268323","TIME_SYSTEM":"UTC","PERIAPSIS":"545.853","TLE_LINE1":"1 44715U 19074C   22009.81895292  .00000791  00000-0  72018-4 0  9998","EPHEMERIS_TYPE":"0","MEAN_MOTION":"15.06389431","LAUNCH_DATE":"2019-11-11","GP_ID":"193556844","ECCENTRICITY":"0.00020120","MEAN_ELEMENT_THEORY":"SGP4","INCLINATION":"53.0539","SITE":"AFETR"},{"FILE":"3268323","TIME_SYSTEM":"UTC","ELEMENT_SET_NO":"999","RA_OF_ASC_NODE":"169.5065","MEAN_MOTION_DDOT":"0.0000000000000","OBJECT_NAME":"STARLINK-1010","REV_AT_EPOCH":"11965","NORAD_CAT_ID":"44716","BSTAR":"-0.00001741100000","ECCENTRICITY":"0.00019290","SITE":"AFETR","INCLINATION":"53.0554","MEAN_ELEMENT_THEORY":"SGP4","LAUNCH_DATE":"2019-11-11","GP_ID":"193556577","PERIAPSIS":"545.878","TLE_LINE1":"1 44716U 19074D   22009.83737076 -.00000541  00000-0 -17411-4 0  9997","MEAN_MOTION":"15.06399797","EPHEMERIS_TYPE":"0","REF_FRAME":"TEME","SEMIMAJOR_AXIS":"6925.349","CLASSIFICATION_TYPE":"U","TLE_LINE2":"2 44716  53.0554 169.5065 0001929  98.8252 261.2956 15.06399797119652","COUNTRY_CODE":"US","MEAN_MOTION_DOT":"-0.00000541","DECAY_DATE":null,"OBJECT_ID":"2019-074D","RCS_SIZE":"LARGE","PERIOD":"95.592","CENTER_NAME":"EARTH","ARG_OF_PERICENTER":"98.8252","EPOCH":"2022-01-09T20:05:48.833664","MEAN_ANOMALY":"261.2956","APOAPSIS":"548.550","OBJECT_TYPE":"PAYLOAD"},{"EPOCH":"2022-01-09T18:27:37.266048","ARG_OF_PERICENTER":"81.4196","APOAPSIS":"548.770","OBJECT_TYPE":"PAYLOAD","MEAN_ANOMALY":"278.7045","DECAY_DATE":null,"MEAN_MOTION_DOT":"-0.00001352","RCS_SIZE":"LARGE","PERIOD":"95.593","CENTER_NAME":"EARTH","OBJECT_ID":"2019-074E","TLE_LINE2":"2 44717  53.0526 189.7974 0002221  81.4196 278.7045 15.06394142119387","COUNTRY_CODE":"US","REF_FRAME":"TEME","SEMIMAJOR_AXIS":"6925.367","CLASSIFICATION_TYPE":"U","MEAN_MOTION":"15.06394142","EPHEMERIS_TYPE":"0","PERIAPSIS":"545.693","TLE_LINE1":"1 44717U 19074E   22009.76918132 -.00001352  00000-0 -71861-4 0  9994","INCLINATION":"53.0526","SITE":"AFETR","MEAN_ELEMENT_THEORY":"SGP4","ECCENTRICITY":"0.00022210","GP_ID":"193555343","LAUNCH_DATE":"2019-11-11","REV_AT_EPOCH":"11938","NORAD_CAT_ID":"44717","BSTAR":"-0.00007186100000","ELEMENT_SET_NO":"999","FILE":"3268323","TIME_SYSTEM":"UTC","OBJECT_NAME":"STARLINK-1011","RA_OF_ASC_NODE":"189.7974","MEAN_MOTION_DDOT":"0.0000000000000"}];
